LEMUR-1                 
1 40044U 14033AL  26197.86830318  .00000748  00000+0  91711-4 0  9996
2 40044  97.7911 347.0211 0047590 342.3747  17.5814 14.85339656649871
LEMUR-2-GREENBERG       
1 42837U 17042N   26197.48372277  .00009505  00000+0  30816-3 0  9992
2 42837  97.3829  17.9935 0007251 254.1864 105.8578 15.32177816492878
LEMUR-2-ANDIS           
1 42838U 17042P   26197.44337105  .00012949  00000+0  37176-3 0  9992
2 42838  97.3681  18.2427 0007241 252.8330 107.2121 15.35956970492944
LEMUR-2-MONSON          
1 42839U 17042Q   26197.49124751  .00007839  00000+0  28284-3 0  9991
2 42839  97.4090  17.9272 0005395 239.7069 120.3638 15.28773757492643
LEMUR-2-FURIAUS         
1 42840U 17042R   26197.49750942  .00010084  00000+0  33733-3 0  9991
2 42840  97.3778  15.8960 0005913 324.3797  35.7049 15.31157870492699
LEMUR-2-PETERG          
1 42841U 17042S   26197.44497411  .00011542  00000+0  34148-3 0  9997
2 42841  97.3992  22.5485 0003389 214.3366 145.7659 15.35058112492928
LEMUR-2-DEMBITZ         
1 42842U 17042T   26197.45191892  .00008589  00000+0  28805-3 0  9993
2 42842  97.3828  18.8957 0005066 269.0377  91.0284 15.31130878492824
LEMUR-2-ZACHARY         
1 42845U 17042W   26197.85665323  .00030352  00000+0  49029-3 0  9999
2 42845  97.3570  30.1782 0002639 236.7735 123.3265 15.52821658493809
LEMUR-2-AMANDA-SVANTE   
1 48269U 21034B   26197.68856595  .00019760  00000+0  56482-3 0  9996
2 48269  97.5750 276.7885 0004667 139.8945 220.2643 15.36019311285586
LEMUR-2-SPECIAL-K       
1 48273U 21034F   26197.22303532  .00169731  00000+0  11202-2 0  9993
2 48273  97.5633 286.4062 0006279 212.8733 147.2141 15.75087247286245
LEMUR-2-EMBRIONOVIS     
1 56970U 23084AQ  26197.35090681  .00007614  00000+0  20418-3 0  9996
2 56970  97.6327 342.6901 0008415 202.0240 158.0643 15.38247880172166
LEMUR-2-DEVERILL-M-T    
1 57391U 23100F   26197.65925755  .00015249  00000+0  37063-3 0  9992
2 57391  99.4449 244.9632 0004719 290.8898  69.1836 15.41137579165784
LEMUR-2-BASS            
1 58259U 23174D   26197.18789286  .00009663  00000+0  21365-3 0  9993
2 58259  97.3848 282.3238 0007619  75.2260 284.9831 15.44014456149837
LEMUR-2-JK0903EM1407    
1 58336U 23174CJ  26197.66525624  .00017451  00000+0  27999-3 0  9999
2 58336  97.3924 288.9977 0003475  27.8497 332.2942 15.53118996150309
LEMUR-2-MJR092620       
1 58340U 23174CN  26197.42580198  .00010592  00000+0  21971-3 0  9998
2 58340  97.3976 288.0144 0005202  26.2655 333.8856 15.45889827150161
LEMUR-2-NIMBUS2000      
1 58899U 24022A   26197.56710172  .00013172  00000+0  31938-3 0  9993
2 58899  97.4075  47.9572 0008618  24.2441 335.9209 15.41153193136797
